NORAD_CAT_ID,OBJECT_NAME,OBJECT_TYPE,EPOCH,MEAN_MOTION,ECCENTRICITY,INCLINATION,RA_OF_ASC_NODE,ARG_OF_PERICENTER,MEAN_ANOMALY,BSTAR,MEAN_MOTION_DOT,MEAN_MOTION_DDOT,TLE_LINE0,TLE_LINE1,TLE_LINE2,SEMIMAJOR_AXIS,PERIOD,APOGEE,PERIGEE,DECAYED
53790.0,STARLINK-4734,PAYLOAD,2023-03-17 06:30:29,15.08823851,0.0001241,53.217,120.1017,91.8309,268.2825,-0.00020438,-3.538e-05,0.0,0 STARLINK-4734,1 53790U 22111T   23076.27117013 -.00003538  00000-0 -20438-3 0  9992,2 53790  53.2170 120.1017 0001241  91.8309 268.2825 15.08823851 28570,6917.93,95.439,540.653,538.936,0.0
53790.0,STARLINK-4734,PAYLOAD,2023-03-17 12:52:01,15.08832406,0.000127,53.217,118.9129,80.8195,279.294,-0.00019939,-3.459e-05,0.0,0 STARLINK-4734,1 53790U 22111T   23076.53612666 -.00003459  00000-0 -19939-3 0  9991,2 53790  53.2170 118.9129 0001270  80.8195 279.2940 15.08832406 28613,6917.904,95.438,540.647,538.89,0.0
53790.0,STARLINK-4734,PAYLOAD,2023-03-17 19:13:33,15.08839194,0.0001214,53.2172,117.7237,80.7536,279.3594,-0.00025617,-4.362e-05,0.0,0 STARLINK-4734,1 53790U 22111T   23076.80108480 -.00004362  00000-0 -25617-3 0  9999,2 53790  53.2172 117.7237 0001214  80.7536 279.3594 15.08839194 29469,6917.883,95.438,540.588,538.908,0.0
53790.0,STARLINK-4734,PAYLOAD,2023-03-18 03:10:28,15.08828035,0.0001065,53.2171,116.2366,87.7423,272.3691,0.00017701,2.53e-05,0.0,0 STARLINK-4734,1 53790U 22111T   23077.13227756  .00002530  00000-0  17701-3 0  9992,2 53790  53.2171 116.2366 0001065  87.7423 272.3691 15.08828035 28700,6917.917,95.438,540.519,539.045,0.0
53790.0,STARLINK-4734,PAYLOAD,2023-03-18 12:42:46,15.0884252,0.0001128,53.2171,114.4523,84.9552,275.1569,0.00023515,3.457e-05,0.0,0 STARLINK-4734,1 53790U 22111T   23077.52970887  .00003457  00000-0  23515-3 0  9994,2 53790  53.2171 114.4523 0001128  84.9552 275.1569 15.08842520 28763,6917.873,95.437,540.518,538.957,0.0
53790.0,STARLINK-4734,PAYLOAD,2023-03-18 19:04:20,15.08836199,0.0001098,53.217,113.2627,83.8743,276.2374,7.023e-05,8.3e-06,0.0,0 STARLINK-4734,1 53790U 22111T   23077.79467863  .00000830  00000-0  70230-4 0  9997,2 53790  53.2170 113.2627 0001098  83.8743 276.2374 15.08836199 28806,6917.892,95.438,540.517,538.997,0.0
53790.0,STARLINK-4734,PAYLOAD,2023-03-19 12:33:34,15.08840935,0.0001145,53.2175,109.9913,86.2973,273.815,0.00018827,2.71e-05,0.0,0 STARLINK-4734,1 53790U 22111T   23078.52331600  .00002710  00000-0  18827-3 0  9990,2 53790  53.2175 109.9913 0001145  86.2973 273.8150 15.08840935 29726,6917.878,95.437,540.535,538.95,0.0
53790.0,STARLINK-4734,PAYLOAD,2023-03-19 18:55:07,15.08838362,0.000108,53.2174,108.8022,80.7894,279.322,0.0001088,1.444e-05,0.0,0 STARLINK-4734,1 53790U 22111T   23078.78828028  .00001444  00000-0  10880-3 0  9997,2 53790  53.2174 108.8022 0001080  80.7894 279.3220 15.08838362 29767,6917.885,95.438,540.498,539.003,0.0
53790.0,STARLINK-4734,PAYLOAD,2023-03-20 07:38:12,15.08841346,0.0001301,53.2188,106.4244,89.2446,270.8695,-6.0166e-05,-1.245e-05,0.0,0 STARLINK-4734,1 53790U 22111T   23079.31820441 -.00001245  00000-0 -60166-4 0  9992,2 53790  53.2188 106.4244 0001301  89.2446 270.8695 15.08841346 29033,6917.876,95.437,540.641,538.841,0.0
53790.0,STARLINK-4734,PAYLOAD,2023-03-20 10:48:58,15.08845588,0.0001272,53.2183,105.8288,85.5813,274.5325,-2.7266e-05,-7.22e-06,0.0,0 STARLINK-4734,1 53790U 22111T   23079.45068018 -.00000722  00000-0 -27266-4 0  9994,2 53790  53.2183 105.8288 0001272  85.5813 274.5325 15.08845588 29867,6917.863,95.437,540.608,538.848,0.0
53790.0,STARLINK-4734,PAYLOAD,2023-03-20 18:45:54,15.08844741,0.000132,53.2179,104.342,81.9084,278.2058,-8.7334e-05,-1.678e-05,0.0,0 STARLINK-4734,1 53790U 22111T   23079.78188164 -.00001678  00000-0 -87334-4 0  9998,2 53790  53.2179 104.3420 0001320  81.9084 278.2058 15.08844741 29918,6917.866,95.437,540.644,538.818,0.0
53790.0,STARLINK-4734,PAYLOAD,2023-03-21 10:39:45,15.088481,0.0001268,53.2179,101.3684,85.4555,274.6581,3.6034e-05,2.86e-06,0.0,0 STARLINK-4734,1 53790U 22111T   23080.44427483  .00000286  00000-0  36034-4 0  9996,2 53790  53.2179 101.3684 0001268  85.4555 274.6581 15.08848100 30017,6917.856,95.437,540.598,538.843,0.0
53790.0,STARLINK-4734,PAYLOAD,2023-03-21 18:36:41,15.08846617,0.0001235,53.2178,99.8814,84.2583,275.855,-1.4244e-05,-5.15e-06,0.0,0 STARLINK-4734,1 53790U 22111T   23080.77547609 -.00000515  00000-0 -14244-4 0  9991,2 53790  53.2178  99.8814 0001235  84.2583 275.8550 15.08846617 30069,6917.86,95.437,540.58,538.871,0.0
53790.0,STARLINK-4734,PAYLOAD,2023-03-22 05:44:23,15.08834586,0.0001253,53.218,97.8003,82.6105,277.5029,5.634e-05,6.09e-06,0.0,0 STARLINK-4734,1 53790U 22111T   23081.23916237  .00000609  00000-0  56340-4 0  9995,2 53790  53.2180  97.8003 0001253  82.6105 277.5029 15.08834586 29321,6917.897,95.438,540.629,538.895,0.0
53790.0,STARLINK-4734,PAYLOAD,2023-03-22 10:30:32,15.08843997,0.0001421,53.2176,96.9076,84.2369,275.8785,7.3339e-05,8.8e-06,0.0,0 STARLINK-4734,1 53790U 22111T   23081.43787616  .00000880  00000-0  73339-4 0  9992,2 53790  53.2176  96.9076 0001421  84.2369 275.8785 15.08843997 29352,6917.868,95.437,540.716,538.75,0.0
53790.0,STARLINK-4734,PAYLOAD,2023-03-22 18:27:28,15.08840608,0.0001422,53.2172,95.4209,84.7652,275.3502,3.4024e-05,2.54e-06,0.0,0 STARLINK-4734,1 53790U 22111T   23081.76907881  .00000254  00000-0  34024-4 0  9999,2 53790  53.2172  95.4209 0001422  84.7652 275.3502 15.08840608 30216,6917.879,95.438,540.727,538.76,0.0
53790.0,STARLINK-4734,PAYLOAD,2023-03-23 03:59:47,15.08840739,0.0001462,53.2172,93.6367,86.4949,273.621,1.1698e-05,-1.02e-06,0.0,0 STARLINK-4734,1 53790U 22111T   23082.16651966 -.00000102  00000-0  11698-4 0  9999,2 53790  53.2172  93.6367 0001462  86.4949 273.6210 15.08840739 29460,6917.878,95.438,540.755,538.732,0.0
53790.0,STARLINK-4734,PAYLOAD,2023-03-23 10:21:19,15.08846147,0.0001442,53.2171,92.4471,88.1534,271.9623,1.2885e-05,-8.3e-07,0.0,0 STARLINK-4734,1 53790U 22111T   23082.43147546 -.00000083  00000-0  12885-4 0  9990,2 53790  53.2171  92.4471 0001442  88.1534 271.9623 15.08846147 30313,6917.862,95.437,540.724,538.729,0.0
53790.0,STARLINK-4734,PAYLOAD,2023-03-24 07:01:20,15.08846302,0.0001545,53.2166,88.5807,88.6323,271.4846,6.5602e-05,7.56e-06,0.0,0 STARLINK-4734,1 53790U 22111T   23083.29259529  .00000756  00000-0  65602-4 0  9991,2 53790  53.2166  88.5807 0001545  88.6323 271.4846 15.08846302 29639,6917.861,95.437,540.795,538.657,0.0
53790.0,STARLINK-4734,PAYLOAD,2023-03-24 11:47:28,15.08858474,0.0001346,53.2181,87.6883,98.858,261.2564,0.000139,1.926e-05,0.0,0 STARLINK-4734,1 53790U 22111T   23083.49130325  .00001926  00000-0  13900-3 0  9998,2 53790  53.2181  87.6883 0001346  98.8580 261.2564 15.08858474 29667,6917.824,95.436,540.62,538.758,0.0
53790.0,STARLINK-4734,PAYLOAD,2023-03-25 05:16:45,15.08831568,0.0001395,53.2185,84.4212,88.3272,271.788,-1.0046e-05,-4.48e-06,0.0,0 STARLINK-4734,1 53790U 22111T   23084.21996653 -.00000448  00000-0 -10046-4 0  9992,2 53790  53.2185  84.4212 0001395  88.3272 271.7880 15.08831568 29772,6917.906,95.438,540.736,538.806,0.0
53790.0,STARLINK-4734,PAYLOAD,2023-03-25 11:38:16,15.08845101,0.0001244,53.2183,83.2294,91.2556,268.8579,2.9504e-05,1.82e-06,0.0,0 STARLINK-4734,1 53790U 22111T   23084.48491674  .00000182  00000-0  29504-4 0  9996,2 53790  53.2183  83.2294 0001244  91.2556 268.8579 15.08845101 29813,6917.865,95.437,540.59,538.869,0.0
53790.0,STARLINK-4734,PAYLOAD,2023-03-25 16:24:27,15.08828663,8.36e-05,53.2189,82.3387,127.1719,232.9349,-4.1106e-05,-9.42e-06,0.0,0 STARLINK-4734,1 53790U 22111T   23084.68364724 -.00000942  00000-0 -41106-4 0  9991,2 53790  53.2189  82.3387 0000836 127.1719 232.9349 15.08828663 29842,6917.915,95.438,540.358,539.202,0.0
53790.0,STARLINK-4734,PAYLOAD,2023-03-25 22:45:59,15.08826029,8.19e-05,53.2187,81.1492,117.1329,242.9747,-9.659e-07,-3.03e-06,0.0,0 STARLINK-4734,1 53790U 22111T   23084.94861009 -.00000303  00000-0 -96590-6 0  9998,2 53790  53.2187  81.1492 0000819 117.1329 242.9747 15.08826029 30693,6917.923,95.438,540.355,539.222,0.0
53790.0,STARLINK-4734,PAYLOAD,2023-03-26 05:07:31,15.08846761,0.0001246,53.2189,79.9572,100.8619,259.2514,-3.1428e-05,-7.88e-06,0.0,0 STARLINK-4734,1 53790U 22111T   23085.21356018 -.00000788  00000-0 -31428-4 0  9992,2 53790  53.2189  79.9572 0001246 100.8619 259.2514 15.08846761 29927,6917.86,95.437,540.587,538.863,0.0
53790.0,STARLINK-4734,PAYLOAD,2023-03-26 11:29:03,15.0885406,0.0001237,53.2193,78.7684,100.741,259.3722,4.77e-05,4.72e-06,0.0,0 STARLINK-4734,1 53790U 22111T   23085.47851293  .00000472  00000-0  47700-4 0  9993,2 53790  53.2193  78.7684 0001237 100.7410 259.3722 15.08854060 29968,6917.837,95.437,540.558,538.847,0.0
53790.0,STARLINK-4734,PAYLOAD,2023-03-26 16:15:13,15.08840049,0.000112,53.2191,77.8781,89.3082,270.8038,-0.00012845,-2.331e-05,0.0,0 STARLINK-4734,1 53790U 22111T   23085.67724532 -.00002331  00000-0 -12845-3 0  9999,2 53790  53.2191  77.8781 0001120  89.3082 270.8038 15.08840049 29995,6917.88,95.438,540.52,538.97,0.0
53790.0,STARLINK-4734,PAYLOAD,2023-03-26 22:36:46,15.08826283,8.18e-05,53.22,76.6892,110.8363,249.2717,0.00010318,1.354e-05,0.0,0 STARLINK-4734,1 53790U 22111T   23085.94221059  .00001354  00000-0  10318-3 0  9990,2 53790  53.2200  76.6892 0000818 110.8363 249.2717 15.08826283 30845,6917.922,95.438,540.353,539.221,0.0
53790.0,STARLINK-4734,PAYLOAD,2023-03-27 09:44:28,15.08840539,0.0001231,53.2184,74.606,98.2781,261.8351,0.00012788,1.748e-05,0.0,0 STARLINK-4734,1 53790U 22111T   23086.40588441  .00001748  00000-0  12788-3 0  9993,2 53790  53.2184  74.6060 0001231  98.2781 261.8351 15.08840539 30916,6917.879,95.438,540.595,538.892,0.0
53790.0,STARLINK-4734,PAYLOAD,2023-03-27 22:27:33,15.08833626,7.75e-05,53.2186,72.2267,122.7512,237.3555,0.00012473,1.698e-05,0.0,0 STARLINK-4734,1 53790U 22111T   23086.93580820  .00001698  00000-0  12473-3 0  9999,2 53790  53.2186  72.2267 0000775 122.7512 237.3555 15.08833626 30180,6917.9,95.438,540.301,539.229,0.0
